JINJUSAT-1B             
1 63210U 25052A   26068.66363707  .00019955  00000+0  68430-3 0  9998
2 63210  97.4113 325.4613 0005550  82.1930 277.9941 15.30194857 54866
STARLINK-33716          
1 63486U 25070AC  26068.91949223  .00037283  00000+0  13568-2 0  9999
2 63486  43.0054 258.3221 0002896 275.4213  84.6308 15.27596358 53016
